CCSDS_OMM_VERS = 2.0
CREATION_DATE  = 
ORIGINATOR     = 

OBJECT_NAME    = SL-14 R/B
OBJECT_ID      = 1991-042B
CENTER_NAME    = EARTH
REF_FRAME      = TEME
TIME_SYSTEM    = UTC
MEAN_ELEMENT_THEORY = SGP/SGP4

EPOCH          = 2026-02-23T18:42:57.338784
MEAN_MOTION    = 14.81813693
ECCENTRICITY   = .00156
INCLINATION    = 82.4899
RA_OF_ASC_NODE = 233.2279
ARG_OF_PERICENTER = 288.5591
MEAN_ANOMALY   = 71.3928

EPHEMERIS_TYPE = 0
CLASSIFICATION_TYPE = U
NORAD_CAT_ID   = 21423
ELEMENT_SET_NO = 999
REV_AT_EPOCH   = 85101
BSTAR          = .53694E-4
MEAN_MOTION_DOT = .448E-5
MEAN_MOTION_DDOT = 0

CCSDS_OMM_VERS = 2.0
CREATION_DATE  = 
ORIGINATOR     = 

OBJECT_NAME    = ERS-1
OBJECT_ID      = 1991-050A
CENTER_NAME    = EARTH
REF_FRAME      = TEME
TIME_SYSTEM    = UTC
MEAN_ELEMENT_THEORY = SGP/SGP4

EPOCH          = 2026-02-23T19:04:54.468768
MEAN_MOTION    = 14.39436993
ECCENTRICITY   = .0030996
INCLINATION    = 98.7891
RA_OF_ASC_NODE = 72.6803
ARG_OF_PERICENTER = 242.5681
MEAN_ANOMALY   = 117.2353

EPHEMERIS_TYPE = 0
CLASSIFICATION_TYPE = U
NORAD_CAT_ID   = 21574
ELEMENT_SET_NO = 999
REV_AT_EPOCH   = 81373
BSTAR          = .10914E-3
MEAN_MOTION_DOT = .295E-5
MEAN_MOTION_DDOT = 0

CCSDS_OMM_VERS = 2.0
CREATION_DATE  = 
ORIGINATOR     = 

OBJECT_NAME    = ARIANE 40 R/B
OBJECT_ID      = 1991-050F
CENTER_NAME    = EARTH
REF_FRAME      = TEME
TIME_SYSTEM    = UTC
MEAN_ELEMENT_THEORY = SGP/SGP4

EPOCH          = 2026-02-23T17:46:09.090336
MEAN_MOTION    = 14.42882228
ECCENTRICITY   = .000433
INCLINATION    = 98.2044
RA_OF_ASC_NODE = 107.4984
ARG_OF_PERICENTER = 111.3822
MEAN_ANOMALY   = 248.7831

EPHEMERIS_TYPE = 0
CLASSIFICATION_TYPE = U
NORAD_CAT_ID   = 21610
ELEMENT_SET_NO = 999
REV_AT_EPOCH   = 81698
BSTAR          = .91903E-4
MEAN_MOTION_DOT = .265E-5
MEAN_MOTION_DDOT = 0

CCSDS_OMM_VERS = 2.0
CREATION_DATE  = 
ORIGINATOR     = 

OBJECT_NAME    = INTERCOSMOS 25
OBJECT_ID      = 1991-086A
CENTER_NAME    = EARTH
REF_FRAME      = TEME
TIME_SYSTEM    = UTC
MEAN_ELEMENT_THEORY = SGP/SGP4

EPOCH          = 2026-02-23T16:55:44.070816
MEAN_MOTION    = 12.11955202
ECCENTRICITY   = .1487089
INCLINATION    = 82.6074
RA_OF_ASC_NODE = 318.4591
ARG_OF_PERICENTER = 147.0570
MEAN_ANOMALY   = 223.2767

EPHEMERIS_TYPE = 0
CLASSIFICATION_TYPE = U
NORAD_CAT_ID   = 21819
ELEMENT_SET_NO = 999
REV_AT_EPOCH   = 49499
BSTAR          = .23668E-3
MEAN_MOTION_DOT = .1237E-4
MEAN_MOTION_DDOT = 0

CCSDS_OMM_VERS = 2.0
CREATION_DATE  = 
ORIGINATOR     = 

OBJECT_NAME    = SL-8 R/B
OBJECT_ID      = 1992-008B
CENTER_NAME    = EARTH
REF_FRAME      = TEME
TIME_SYSTEM    = UTC
MEAN_ELEMENT_THEORY = SGP/SGP4

EPOCH          = 2026-02-23T14:35:50.974368
MEAN_MOTION    = 13.75969909
ECCENTRICITY   = .003478
INCLINATION    = 82.9238
RA_OF_ASC_NODE = 278.2554
ARG_OF_PERICENTER = 172.0067
MEAN_ANOMALY   = 217.0497

EPHEMERIS_TYPE = 0
CLASSIFICATION_TYPE = U
NORAD_CAT_ID   = 21876
ELEMENT_SET_NO = 999
REV_AT_EPOCH   = 70748
BSTAR          = -.69918E-5
MEAN_MOTION_DOT = .9E-7
MEAN_MOTION_DDOT = 0

CCSDS_OMM_VERS = 2.0
CREATION_DATE  = 
ORIGINATOR     = 

OBJECT_NAME    = SL-8 R/B
OBJECT_ID      = 1992-020B
CENTER_NAME    = EARTH
REF_FRAME      = TEME
TIME_SYSTEM    = UTC
MEAN_ELEMENT_THEORY = SGP/SGP4

EPOCH          = 2026-02-23T13:41:44.306016
MEAN_MOTION    = 13.75547666
ECCENTRICITY   = .0028323
INCLINATION    = 82.9344
RA_OF_ASC_NODE = 164.2412
ARG_OF_PERICENTER = 339.6215
MEAN_ANOMALY   = 31.2645

EPHEMERIS_TYPE = 0
CLASSIFICATION_TYPE = U
NORAD_CAT_ID   = 21938
ELEMENT_SET_NO = 999
REV_AT_EPOCH   = 69919
BSTAR          = .8369E-4
MEAN_MOTION_DOT = .96E-6
MEAN_MOTION_DDOT = 0

CCSDS_OMM_VERS = 2.0
CREATION_DATE  = 
ORIGINATOR     = 

OBJECT_NAME    = USA 81
OBJECT_ID      = 1992-023A
CENTER_NAME    = EARTH
REF_FRAME      = TEME
TIME_SYSTEM    = UTC
MEAN_ELEMENT_THEORY = SGP/SGP4

EPOCH          = 2026-02-23T11:27:49.901760
MEAN_MOTION    = 14.32362672
ECCENTRICITY   = .0002729
INCLINATION    = 85.0111
RA_OF_ASC_NODE = 139.6375
ARG_OF_PERICENTER = 89.9218
MEAN_ANOMALY   = 270.2288

EPHEMERIS_TYPE = 0
CLASSIFICATION_TYPE = U
NORAD_CAT_ID   = 21949
ELEMENT_SET_NO = 999
REV_AT_EPOCH   = 9275
BSTAR          = .63424468E-4
MEAN_MOTION_DOT = .191E-5
MEAN_MOTION_DDOT = 0

CCSDS_OMM_VERS = 2.0
CREATION_DATE  = 
ORIGINATOR     = 

OBJECT_NAME    = COSMOS 2219
OBJECT_ID      = 1992-076A
CENTER_NAME    = EARTH
REF_FRAME      = TEME
TIME_SYSTEM    = UTC
MEAN_ELEMENT_THEORY = SGP/SGP4

EPOCH          = 2026-02-23T17:26:56.732064
MEAN_MOTION    = 14.14082849
ECCENTRICITY   = .0019649
INCLINATION    = 71.0595
RA_OF_ASC_NODE = 47.2560
ARG_OF_PERICENTER = 225.7174
MEAN_ANOMALY   = 134.2337

EPHEMERIS_TYPE = 0
CLASSIFICATION_TYPE = U
NORAD_CAT_ID   = 22219
ELEMENT_SET_NO = 999
REV_AT_EPOCH   = 71640
BSTAR          = .20894E-3
MEAN_MOTION_DOT = .351E-5
MEAN_MOTION_DDOT = 0

CCSDS_OMM_VERS = 2.0
CREATION_DATE  = 
ORIGINATOR     = 

OBJECT_NAME    = SL-16 R/B
OBJECT_ID      = 1992-076B
CENTER_NAME    = EARTH
REF_FRAME      = TEME
TIME_SYSTEM    = UTC
MEAN_ELEMENT_THEORY = SGP/SGP4

EPOCH          = 2026-02-23T10:17:42.605376
MEAN_MOTION    = 14.16855682
ECCENTRICITY   = .00109578
INCLINATION    = 70.9981
RA_OF_ASC_NODE = 218.4121
ARG_OF_PERICENTER = 122.5435
MEAN_ANOMALY   = 265.6563

EPHEMERIS_TYPE = 0
CLASSIFICATION_TYPE = U
NORAD_CAT_ID   = 22220
ELEMENT_SET_NO = 999
REV_AT_EPOCH   = 71981
BSTAR          = .13244741E-3
MEAN_MOTION_DOT = .218E-5
MEAN_MOTION_DDOT = 0

CCSDS_OMM_VERS = 2.0
CREATION_DATE  = 
ORIGINATOR     = 

OBJECT_NAME    = COSMOS 2221
OBJECT_ID      = 1992-080A
CENTER_NAME    = EARTH
REF_FRAME      = TEME
TIME_SYSTEM    = UTC
MEAN_ELEMENT_THEORY = SGP/SGP4

EPOCH          = 2026-02-23T15:49:51.044448
MEAN_MOTION    = 14.96141645
ECCENTRICITY   = .0012978
INCLINATION    = 82.5032
RA_OF_ASC_NODE = 292.5206
ARG_OF_PERICENTER = 237.3937
MEAN_ANOMALY   = 122.6033

EPHEMERIS_TYPE = 0
CLASSIFICATION_TYPE = U
NORAD_CAT_ID   = 22236
ELEMENT_SET_NO = 999
REV_AT_EPOCH   = 77869
BSTAR          = .15123E-3
MEAN_MOTION_DOT = .173E-4
MEAN_MOTION_DDOT = 0

CCSDS_OMM_VERS = 2.0
CREATION_DATE  = 
ORIGINATOR     = 

OBJECT_NAME    = SL-16 R/B
OBJECT_ID      = 1992-093B
CENTER_NAME    = EARTH
REF_FRAME      = TEME
TIME_SYSTEM    = UTC
MEAN_ELEMENT_THEORY = SGP/SGP4

EPOCH          = 2026-02-23T16:13:39.709920
MEAN_MOTION    = 14.15448389
ECCENTRICITY   = .0005876
INCLINATION    = 71.0224
RA_OF_ASC_NODE = 33.6826
ARG_OF_PERICENTER = 308.9146
MEAN_ANOMALY   = 51.1453

EPHEMERIS_TYPE = 0
CLASSIFICATION_TYPE = U
NORAD_CAT_ID   = 22285
ELEMENT_SET_NO = 999
REV_AT_EPOCH   = 71117
BSTAR          = .12531E-3
MEAN_MOTION_DOT = .197E-5
MEAN_MOTION_DDOT = 0

CCSDS_OMM_VERS = 2.0
CREATION_DATE  = 
ORIGINATOR     = 

OBJECT_NAME    = COSMOS 2228
OBJECT_ID      = 1992-094A
CENTER_NAME    = EARTH
REF_FRAME      = TEME
TIME_SYSTEM    = UTC
MEAN_ELEMENT_THEORY = SGP/SGP4

EPOCH          = 2026-02-23T19:39:10.914048
MEAN_MOTION    = 14.97115210
ECCENTRICITY   = .0017828
INCLINATION    = 82.5148
RA_OF_ASC_NODE = 250.5938
ARG_OF_PERICENTER = 353.3912
MEAN_ANOMALY   = 6.7072

EPHEMERIS_TYPE = 0
CLASSIFICATION_TYPE = U
NORAD_CAT_ID   = 22286
ELEMENT_SET_NO = 999
REV_AT_EPOCH   = 77398
BSTAR          = .20497E-3
MEAN_MOTION_DOT = .2398E-4
MEAN_MOTION_DDOT = 0

