SL-14 R/B               
1 21423U 91042B   26054.77983031  .00000448  00000+0  53694-4 0  9999
2 21423  82.4899 233.2279 0015600 288.5591  71.3928 14.81813693851011
ERS-1                   
1 21574U 91050A   26054.79507487  .00000295  00000+0  10914-3 0  9991
2 21574  98.7891  72.6803 0030996 242.5681 117.2353 14.39436993813739
ARIANE 40 R/B           
1 21610U 91050F   26054.74038299  .00000265  00000+0  91903-4 0  9992
2 21610  98.2044 107.4984 0004330 111.3822 248.7831 14.42882228816986
INTERCOSMOS 25          
1 21819U 91086A   26054.70537119  .00001237  00000+0  23668-3 0  9995
2 21819  82.6074 318.4591 1487089 147.0570 223.2767 12.11955202494994
SL-8 R/B                
1 21876U 92008B   26054.60822887  .00000009  00000+0 -69918-5 0  9998
2 21876  82.9238 278.2554 0034780 172.0067 217.0497 13.75969909707480
SL-8 R/B                
1 21938U 92020B   26054.57065169  .00000096  00000+0  83690-4 0  9996
2 21938  82.9344 164.2412 0028323 339.6215  31.2645 13.75547666699197
USA 81                  
1 21949U 92023A   26054.47766090  .00000191  00000+0  63424-4 0  9990
2 21949  85.0111 139.6375 0002729  89.9218 270.2288 14.32362672 92752
COSMOS 2219             
1 22219U 92076A   26054.72704551  .00000351  00000+0  20894-3 0  9992
2 22219  71.0595  47.2560 0019649 225.7174 134.2337 14.14082849716408
SL-16 R/B               
1 22220U 92076B   26054.42896534  .00000218  00000+0  13245-3 0  9998
2 22220  70.9981 218.4121 0010957 122.5435 265.6563 14.16855682719812
COSMOS 2221             
1 22236U 92080A   26054.65961857  .00001730  00000+0  15123-3 0  9993
2 22236  82.5032 292.5206 0012978 237.3937 122.6033 14.96141645778699
SL-16 R/B               
1 22285U 92093B   26054.67615405  .00000197  00000+0  12531-3 0  9994
2 22285  71.0224  33.6826 0005876 308.9146  51.1453 14.15448389711175
COSMOS 2228             
1 22286U 92094A   26054.81887632  .00002398  00000+0  20497-3 0  9990
2 22286  82.5148 250.5938 0017828 353.3912   6.7072 14.97115210773981
